{
  "norad_id": 47753,
  "name": "STARLINK-2170",
  "history": [
    {
      "epoch": "2026-04-13T06:00:02.000160Z",
      "apogee_km": 471.80534666213134,
      "perigee_km": 469.7666962355661,
      "latitude_deg": -27.185207677897957,
      "longitude_deg": 89.40902489711453,
      "height_km": 479.500889440552,
      "semi_major_axis_km": 6848.923021448848,
      "eccentricity": 0.00014883,
      "inclination_deg": 53.1595,
      "raan_deg": 43.3597,
      "arg_perigee_deg": 94.4901,
      "mean_anomaly_deg": 230.9854,
      "mean_motion_rev_day": 15.3168456
    },
    {
      "epoch": "2026-04-14T20:00:01.999008Z",
      "apogee_km": 471.7040953368669,
      "perigee_km": 469.6795815322266,
      "latitude_deg": 44.574362056003444,
      "longitude_deg": -59.799202045727974,
      "height_km": 474.57129946434685,
      "semi_major_axis_km": 6848.828838434547,
      "eccentricity": 0.0001478,
      "inclination_deg": 53.1604,
      "raan_deg": 35.9869,
      "arg_perigee_deg": 106.5813,
      "mean_anomaly_deg": 314.4475,
      "mean_motion_rev_day": 15.31716155
    },
    {
      "epoch": "2026-04-15T20:00:01.999008Z",
      "apogee_km": 471.7533507801745,
      "perigee_km": 469.7343007127447,
      "latitude_deg": 1.3335123764712058,
      "longitude_deg": 66.34002406618082,
      "height_km": 471.2720360159054,
      "semi_major_axis_km": 6848.88082574646,
      "eccentricity": 0.0001474,
      "inclination_deg": 53.1614,
      "raan_deg": 31.3318,
      "arg_perigee_deg": 100.1863,
      "mean_anomaly_deg": 78.041,
      "mean_motion_rev_day": 15.31698715
    },
    {
      "epoch": "2026-04-16T18:42:57.026880Z",
      "apogee_km": 471.6349694458286,
      "perigee_km": 469.7830414859509,
      "latitude_deg": 7.556872035284522e-05,
      "longitude_deg": -98.73358660072546,
      "height_km": 471.6655313408084,
      "semi_major_axis_km": 6848.84600546589,
      "eccentricity": 0.0001352,
      "inclination_deg": 53.1631,
      "raan_deg": 26.9266,
      "arg_perigee_deg": 93.5695,
      "mean_anomaly_deg": 266.5462,
      "mean_motion_rev_day": 15.31710396
    },
    {
      "epoch": "2026-04-17T11:56:31.559136Z",
      "apogee_km": 471.8736208960572,
      "perigee_km": 469.6104773030738,
      "latitude_deg": 2.071786549034501e-05,
      "longitude_deg": -1.177068187149575,
      "height_km": 471.64663048953537,
      "semi_major_axis_km": 6848.879049099565,
      "eccentricity": 0.00016522,
      "inclination_deg": 53.1632,
      "raan_deg": 23.5845,
      "arg_perigee_deg": 90.3096,
      "mean_anomaly_deg": 269.8095,
      "mean_motion_rev_day": 15.31699311
    },
    {
      "epoch": "2026-04-18T03:36:08.014464Z",
      "apogee_km": 471.6731435693555,
      "perigee_km": 469.8229857579872,
      "latitude_deg": 1.392243548534472e-05,
      "longitude_deg": 120.23869159020306,
      "height_km": 471.7087601265358,
      "semi_major_axis_km": 6848.885064663671,
      "eccentricity": 0.00013507,
      "inclination_deg": 53.1606,
      "raan_deg": 20.5453,
      "arg_perigee_deg": 93.848,
      "mean_anomaly_deg": 266.2676,
      "mean_motion_rev_day": 15.31697293
    },
    {
      "epoch": "2026-04-19T10:55:20.278848Z",
      "apogee_km": 471.7875890374853,
      "perigee_km": 469.6801914645548,
      "latitude_deg": -6.238254020267488e-06,
      "longitude_deg": 3.0749046802507394,
      "height_km": 471.8736204935609,
      "semi_major_axis_km": 6848.87089025102,
      "eccentricity": 0.00015385,
      "inclination_deg": 53.1616,
      "raan_deg": 14.4689,
      "arg_perigee_deg": 103.2337,
      "mean_anomaly_deg": 256.8836,
      "mean_motion_rev_day": 15.31702048
    },
    {
      "epoch": "2026-04-20T10:24:45.465120Z",
      "apogee_km": 471.7503583925354,
      "perigee_km": 469.7671921318497,
      "latitude_deg": -2.2297146742393844e-05,
      "longitude_deg": 5.200834717061928,
      "height_km": 471.66325150287923,
      "semi_major_axis_km": 6848.895775262192,
      "eccentricity": 0.00014478,
      "inclination_deg": 53.1601,
      "raan_deg": 9.9145,
      "arg_perigee_deg": 90.3496,
      "mean_anomaly_deg": 269.7671,
      "mean_motion_rev_day": 15.316937
    },
    {
      "epoch": "2026-04-21T09:54:09.793440Z",
      "apogee_km": 471.6783044969188,
      "perigee_km": 469.7888380837121,
      "latitude_deg": 1.895406443246689e-05,
      "longitude_deg": 7.327491351661647,
      "height_km": 471.88487280932253,
      "semi_major_axis_km": 6848.870571290316,
      "eccentricity": 0.00013794,
      "inclination_deg": 53.1609,
      "raan_deg": 5.3572,
      "arg_perigee_deg": 105.5103,
      "mean_anomaly_deg": 254.6051,
      "mean_motion_rev_day": 15.31702155
    }
  ]
}